{
  "norad_id": 48412,
  "name": "STARLINK-2581",
  "history": [
    {
      "epoch": "2026-03-28T18:10:17.675328",
      "apogee_km": 548.052124017765,
      "perigee_km": 546.2576423849905,
      "latitude_deg": 2.178412197545525,
      "longitude_deg": 173.8863059200812,
      "semi_major_axis_km": 6925.2918832013775,
      "eccentricity": 0.00012956,
      "inclination_deg": 53.0551,
      "raan_deg": 206.4546,
      "arg_perigee_deg": 78.7776,
      "mean_anomaly_deg": 281.3359,
      "mean_motion_rev_day": 15.06418492
    },
    {
      "epoch": "2026-03-29T00:32:27.995136",
      "apogee_km": 548.5639998415372,
      "perigee_km": 545.864497924722,
      "latitude_deg": 46.3784362670424,
      "longitude_deg": -160.63556096004322,
      "semi_major_axis_km": 6925.351248883129,
      "eccentricity": 0.0001949,
      "inclination_deg": 53.0552,
      "raan_deg": 205.263,
      "arg_perigee_deg": 81.2068,
      "mean_anomaly_deg": 278.9141,
      "mean_motion_rev_day": 15.06399122
    }
  ]
}